CTC1_L_00430001-01
1 54545U 26723HG  26070.40836806  .00000000  00000+0  00000-0 0  9992
2 54545  55.0000   0.0000 0000000   0.0000   0.0000 12.53473438    16
CTC1_L_00430001-02
1 54546U 22069YV  26070.40836806  .00000000  00000+0  00000-0 0  9992
2 54546  55.0000   0.0000 0000000   0.0000  90.0000 12.53473438    16
CTC1_L_00430001-03
1 54547U 24284IM  26070.40836806  .00000000  00000+0  00000-0 0  9994
2 54547  55.0000   0.0000 0000000   0.0000 180.0000 12.53473438    17
CTC1_L_00430001-04
1 54548U 22889QO  26070.40836806  .00000000  00000+0  00000-0 0  9994
2 54548  55.0000   0.0000 0000000   0.0000 270.0000 12.53473438    18
CTC1_L_00430002-01
1 54549U 26158AW  26070.40836806  .00000000  00000+0  00000-0 0  9998
2 54549  55.0000  12.0000 0000000   0.0000  12.0000 12.53473438    16
CTC1_L_00430002-02
1 54550U 23938UT  26070.40836806  .00000000  00000+0  00000-0 0  9993
2 54550  55.0000  12.0000 0000000   0.0000 102.0000 12.53473438    18
CTC1_L_00430002-03
1 54551U 26398PO  26070.40836806  .00000000  00000+0  00000-0 0  9997
2 54551  55.0000  12.0000 0000000   0.0000 192.0000 12.53473438    18
CTC1_L_00430002-04
1 54552U 26978CF  26070.40836806  .00000000  00000+0  00000-0 0  9992
2 54552  55.0000  12.0000 0000000   0.0000 282.0000 12.53473438    19
CTC1_L_00430003-01
1 54553U 26528NF  26070.40836806  .00000000  00000+0  00000-0 0  9994
2 54553  55.0000  24.0000 0000000   0.0000  24.0000 12.53473438    17
CTC1_L_00430003-02
1 54554U 22753PM  26070.40836806  .00000000  00000+0  00000-0 0  9991
2 54554  55.0000  24.0000 0000000   0.0000 114.0000 12.53473438    18
CTC1_L_00430003-03
1 54555U 26100BT  26070.40836806  .00000000  00000+0  00000-0 0  9992
2 54555  55.0000  24.0000 0000000   0.0000 204.0000 12.53473438    19
CTC1_L_00430003-04
1 54556U 26934LJ  26070.40836806  .00000000  00000+0  00000-0 0  9998
2 54556  55.0000  24.0000 0000000   0.0000 294.0000 12.53473438    19
CTC1_L_00430004-01
1 54557U 22417DW  26070.40836806  .00000000  00000+0  00000-0 0  9991
2 54557  55.0000  36.0000 0000000   0.0000  36.0000 12.53473438    17
CTC1_L_00430004-02
1 54558U 25953YU  26070.40836806  .00000000  00000+0  00000-0 0  9990
2 54558  55.0000  36.0000 0000000   0.0000 126.0000 12.53473438    18
CTC1_L_00430004-03
1 54559U 25959JM  26070.40836806  .00000000  00000+0  00000-0 0  9997
2 54559  55.0000  36.0000 0000000   0.0000 216.0000 12.53473438    19
CTC1_L_00430004-04
1 54560U 23527CW  26070.40836806  .00000000  00000+0  00000-0 0  9998
2 54560  55.0000  36.0000 0000000   0.0000 306.0000 12.53473438    11
CTC1_L_00430005-01
1 54561U 22583DI  26070.40836806  .00000000  00000+0  00000-0 0  9990
2 54561  55.0000  48.0000 0000000   0.0000  48.0000 12.53473438    18
CTC1_L_00430005-02
1 54562U 25120KU  26070.40836806  .00000000  00000+0  00000-0 0  9991
2 54562  55.0000  48.0000 0000000   0.0000 138.0000 12.53473438    19
CTC1_L_00430005-03
1 54563U 25945PR  26070.40836806  .00000000  00000+0  00000-0 0  9997
2 54563  55.0000  48.0000 0000000   0.0000 228.0000 12.53473438    10
CTC1_L_00430005-04
1 54564U 23192LV  26070.40836806  .00000000  00000+0  00000-0 0  9990
2 54564  55.0000  48.0000 0000000   0.0000 318.0000 12.53473438    11
CTC1_L_00430006-01
1 54565U 23397IM  26070.40836806  .00000000  00000+0  00000-0 0  9998
2 54565  55.0000  60.0000 0000000   0.0000  60.0000 12.53473438    10
CTC1_L_00430006-02
1 54566U 24376VK  26070.40836806  .00000000  00000+0  00000-0 0  9997
2 54566  55.0000  60.0000 0000000   0.0000 150.0000 12.53473438    11
CTC1_L_00430006-03
1 54567U 22419IJ  26070.40836806  .00000000  00000+0  00000-0 0  9994
2 54567  55.0000  60.0000 0000000   0.0000 240.0000 12.53473438    12
CTC1_L_00430006-04
1 54568U 22873EN  26070.40836806  .00000000  00000+0  00000-0 0  9999
2 54568  55.0000  60.0000 0000000   0.0000 330.0000 12.53473438    13
CTC1_L_00430007-01
1 54569U 25407IV  26070.40836806  .00000000  00000+0  00000-0 0  9996
2 54569  55.0000  72.0000 0000000   0.0000  72.0000 12.53473438    10
CTC1_L_00430007-02
1 54570U 22960KY  26070.40836806  .00000000  00000+0  00000-0 0  9999
2 54570  55.0000  72.0000 0000000   0.0000 162.0000 12.53473438    12
CTC1_L_00430007-03
1 54571U 26517DM  26070.40836806  .00000000  00000+0  00000-0 0  9992
2 54571  55.0000  72.0000 0000000   0.0000 252.0000 12.53473438    13
CTC1_L_00430007-04
1 54572U 25923IV  26070.40836806  .00000000  00000+0  00000-0 0  9993
2 54572  55.0000  72.0000 0000000   0.0000 342.0000 12.53473438    14
CTC1_L_00430008-01
1 54573U 23099YQ  26070.40836806  .00000000  00000+0  00000-0 0  9996
2 54573  55.0000  84.0000 0000000   0.0000  84.0000 12.53473438    11
CTC1_L_00430008-02
1 54574U 24865ZE  26070.40836806  .00000000  00000+0  00000-0 0  9999
2 54574  55.0000  84.0000 0000000   0.0000 174.0000 12.53473438    12
CTC1_L_00430008-03
1 54575U 25205XD  26070.40836806  .00000000  00000+0  00000-0 0  9999
2 54575  55.0000  84.0000 0000000   0.0000 264.0000 12.53473438    13
CTC1_L_00430008-04
1 54576U 23481RX  26070.40836806  .00000000  00000+0  00000-0 0  9994
2 54576  55.0000  84.0000 0000000   0.0000 354.0000 12.53473438    14
CTC1_L_00430009-01
1 54577U 22794MH  26070.40836806  .00000000  00000+0  00000-0 0  9991
2 54577  55.0000  96.0000 0000000   0.0000  96.0000 12.53473438    11
CTC1_L_00430009-02
1 54578U 23249DE  26070.40836806  .00000000  00000+0  00000-0 0  9998
2 54578  55.0000  96.0000 0000000   0.0000 186.0000 12.53473438    12
CTC1_L_00430009-03
1 54579U 26606GX  26070.40836806  .00000000  00000+0  00000-0 0  9999
2 54579  55.0000  96.0000 0000000   0.0000 276.0000 12.53473438    13
CTC1_L_00430009-04
1 54580U 26102QW  26070.40836806  .00000000  00000+0  00000-0 0  9992
2 54580  55.0000  96.0000 0000000   0.0000   6.0000 12.53473438    16
CTC1_L_00430010-01
1 54581U 23868DQ  26070.40836806  .00000000  00000+0  00000-0 0  9999
2 54581  55.0000 108.0000 0000000   0.0000 108.0000 12.53473438    14
CTC1_L_00430010-02
1 54582U 24911DA  26070.40836806  .00000000  00000+0  00000-0 0  9990
2 54582  55.0000 108.0000 0000000   0.0000 198.0000 12.53473438    14
CTC1_L_00430010-03
1 54583U 26141JN  26070.40836806  .00000000  00000+0  00000-0 0  9998
2 54583  55.0000 108.0000 0000000   0.0000 288.0000 12.53473438    15
CTC1_L_00430010-04
1 54584U 26143QO  26070.40836806  .00000000  00000+0  00000-0 0  9991
2 54584  55.0000 108.0000 0000000   0.0000  18.0000 12.53473438    17
CTC1_L_00430011-01
1 54585U 23691JH  26070.40836806  .00000000  00000+0  00000-0 0  9997
2 54585  55.0000 120.0000 0000000   0.0000 120.0000 12.53473438    16
CTC1_L_00430011-02
1 54586U 23281II  26070.40836806  .00000000  00000+0  00000-0 0  9993
2 54586  55.0000 120.0000 0000000   0.0000 210.0000 12.53473438    17
CTC1_L_00430011-03
1 54587U 23568AY  26070.40836806  .00000000  00000+0  00000-0 0  9992
2 54587  55.0000 120.0000 0000000   0.0000 300.0000 12.53473438    18
CTC1_L_00430011-04
1 54588U 22496KM  26070.40836806  .00000000  00000+0  00000-0 0  9992
2 54588  55.0000 120.0000 0000000   0.0000  30.0000 12.53473438    19
CTC1_L_00430012-01
1 54589U 26814VK  26070.40836806  .00000000  00000+0  00000-0 0  9991
2 54589  55.0000 132.0000 0000000   0.0000 132.0000 12.53473438    16
CTC1_L_00430012-02
1 54590U 22554IH  26070.40836806  .00000000  00000+0  00000-0 0  9990
2 54590  55.0000 132.0000 0000000   0.0000 222.0000 12.53473438    18
CTC1_L_00430012-03
1 54591U 26428WX  26070.40836806  .00000000  00000+0  00000-0 0  9995
2 54591  55.0000 132.0000 0000000   0.0000 312.0000 12.53473438    19
CTC1_L_00430012-04
1 54592U 22230HX  26070.40836806  .00000000  00000+0  00000-0 0  9993
2 54592  55.0000 132.0000 0000000   0.0000  42.0000 12.53473438    10
CTC1_L_00430013-01
1 54593U 26648TJ  26070.40836806  .00000000  00000+0  00000-0 0  9991
2 54593  55.0000 144.0000 0000000   0.0000 144.0000 12.53473438    17
CTC1_L_00430013-02
1 54594U 23689DC  26070.40836806  .00000000  00000+0  00000-0 0  9994
2 54594  55.0000 144.0000 0000000   0.0000 234.0000 12.53473438    18
CTC1_L_00430013-03
1 54595U 22487IL  26070.40836806  .00000000  00000+0  00000-0 0  9990
2 54595  55.0000 144.0000 0000000   0.0000 324.0000 12.53473438    19
CTC1_L_00430013-04
1 54596U 25622LZ  26070.40836806  .00000000  00000+0  00000-0 0  9995
2 54596  55.0000 144.0000 0000000   0.0000  54.0000 12.53473438    10
CTC1_L_00430014-01
1 54597U 25287GQ  26070.40836806  .00000000  00000+0  00000-0 0  9993
2 54597  55.0000 156.0000 0000000   0.0000 156.0000 12.53473438    17
CTC1_L_00430014-02
1 54598U 25782GM  26070.40836806  .00000000  00000+0  00000-0 0  9994
2 54598  55.0000 156.0000 0000000   0.0000 246.0000 12.53473438    18
CTC1_L_00430014-03
1 54599U 22847GP  26070.40836806  .00000000  00000+0  00000-0 0  9994
2 54599  55.0000 156.0000 0000000   0.0000 336.0000 12.53473438    19
CTC1_L_00430014-04
1 54600U 26550YD  26070.40836806  .00000000  00000+0  00000-0 0  9992
2 54600  55.0000 156.0000 0000000   0.0000  66.0000 12.53473438    12
CTC1_L_00430015-01
1 54601U 25003UF  26070.40836806  .00000000  00000+0  00000-0 0  9995
2 54601  55.0000 168.0000 0000000   0.0000 168.0000 12.53473438    19
CTC1_L_00430015-02
1 54602U 24503XM  26070.40836806  .00000000  00000+0  00000-0 0  9990
2 54602  55.0000 168.0000 0000000   0.0000 258.0000 12.53473438    10
CTC1_L_00430015-03
1 54603U 22295LG  26070.40836806  .00000000  00000+0  00000-0 0  9997
2 54603  55.0000 168.0000 0000000   0.0000 348.0000 12.53473438    11
CTC1_L_00430015-04
1 54604U 26543LC  26070.40836806  .00000000  00000+0  00000-0 0  9998
2 54604  55.0000 168.0000 0000000   0.0000  78.0000 12.53473438    12
CTC1_L_00430016-01
1 54605U 22505VW  26070.40836806  .00000000  00000+0  00000-0 0  9993
2 54605  55.0000 180.0000 0000000   0.0000 180.0000 12.53473438    11
CTC1_L_00430016-02
1 54606U 26100SJ  26070.40836806  .00000000  00000+0  00000-0 0  9999
2 54606  55.0000 180.0000 0000000   0.0000 270.0000 12.53473438    12
